{"fetched_at":"2026-07-12T07:16:02.676Z","source":"https://celestrak.org/NORAD/elements/gp.php?NAME=STRIX&FORMAT=JSON","constellation":"synspective","records":[{"OBJECT_NAME":"STRIX-1","OBJECT_ID":"2022-113A","EPOCH":"2026-07-11T22:26:31.740576","CLASSIFICATION_TYPE":"U","MEAN_MOTION":15.40902439,"ECCENTRICITY":0.00053791,"INCLINATION":97.4488,"RA_OF_ASC_NODE":255.4166,"ARG_OF_PERICENTER":140.4391,"MEAN_ANOMALY":219.7249,"EPHEMERIS_TYPE":0,"NORAD_CAT_ID":53815,"ELEMENT_SET_NO":999,"REV_AT_EPOCH":21125,"BSTAR":0.00037188804,"MEAN_MOTION_DOT":0.00015217,"MEAN_MOTION_DDOT":0},{"OBJECT_NAME":"STRIX-3","OBJECT_ID":"2024-047A","EPOCH":"2026-07-11T22:30:25.277184","CLASSIFICATION_TYPE":"U","MEAN_MOTION":15.19778643,"ECCENTRICITY":0.00123413,"INCLINATION":97.6627,"RA_OF_ASC_NODE":168.986,"ARG_OF_PERICENTER":346.719,"MEAN_ANOMALY":13.3717,"EPHEMERIS_TYPE":0,"NORAD_CAT_ID":59224,"ELEMENT_SET_NO":999,"REV_AT_EPOCH":12850,"BSTAR":0.00026400294,"MEAN_MOTION_DOT":0.00005589,"MEAN_MOTION_DDOT":0},{"OBJECT_NAME":"STRIX-4","OBJECT_ID":"2024-137A","EPOCH":"2026-07-11T21:57:01.478880","CLASSIFICATION_TYPE":"U","MEAN_MOTION":15.33242349,"ECCENTRICITY":0.001577,"INCLINATION":43.0144,"RA_OF_ASC_NODE":144.2491,"ARG_OF_PERICENTER":108.8188,"MEAN_ANOMALY":251.4378,"EPHEMERIS_TYPE":0,"NORAD_CAT_ID":60352,"ELEMENT_SET_NO":999,"REV_AT_EPOCH":10781,"BSTAR":0.00029652985,"MEAN_MOTION_DOT":0.00009492,"MEAN_MOTION_DDOT":0},{"OBJECT_NAME":"STRIX-2","OBJECT_ID":"2024-248A","EPOCH":"2026-07-11T22:32:10.929696","CLASSIFICATION_TYPE":"U","MEAN_MOTION":15.09173198,"ECCENTRICITY":0.00135259,"INCLINATION":97.6296,"RA_OF_ASC_NODE":148.441,"ARG_OF_PERICENTER":248.2341,"MEAN_ANOMALY":111.7448,"EPHEMERIS_TYPE":0,"NORAD_CAT_ID":62406,"ELEMENT_SET_NO":999,"REV_AT_EPOCH":8532,"BSTAR":0.00020544919,"MEAN_MOTION_DOT":0.00003205,"MEAN_MOTION_DDOT":0},{"OBJECT_NAME":"STRIX-5","OBJECT_ID":"2025-229A","EPOCH":"2026-07-11T22:20:55.464000","CLASSIFICATION_TYPE":"U","MEAN_MOTION":15.04575429,"ECCENTRICITY":0.00376151,"INCLINATION":41.9268,"RA_OF_ASC_NODE":150.1696,"ARG_OF_PERICENTER":216.6886,"MEAN_ANOMALY":143.1363,"EPHEMERIS_TYPE":0,"NORAD_CAT_ID":65971,"ELEMENT_SET_NO":999,"REV_AT_EPOCH":4070,"BSTAR":0.0001358973,"MEAN_MOTION_DOT":0.00001771,"MEAN_MOTION_DDOT":0},{"OBJECT_NAME":"STRIX-6","OBJECT_ID":"2026-056A","EPOCH":"2026-07-11T02:33:14.445216","CLASSIFICATION_TYPE":"U","MEAN_MOTION":15.00317742,"ECCENTRICITY":0.00165783,"INCLINATION":50.2817,"RA_OF_ASC_NODE":236.7152,"ARG_OF_PERICENTER":335.5146,"MEAN_ANOMALY":24.5014,"EPHEMERIS_TYPE":0,"NORAD_CAT_ID":68291,"ELEMENT_SET_NO":999,"REV_AT_EPOCH":1686,"BSTAR":0.00012111851,"MEAN_MOTION_DOT":0.00001272,"MEAN_MOTION_DDOT":0},{"OBJECT_NAME":"STRIX-7","OBJECT_ID":"2026-112A","EPOCH":"2026-07-11T22:07:29.790048","CLASSIFICATION_TYPE":"U","MEAN_MOTION":15.01594186,"ECCENTRICITY":0.0024352,"INCLINATION":44.9079,"RA_OF_ASC_NODE":62.5234,"ARG_OF_PERICENTER":189.7901,"MEAN_ANOMALY":170.2499,"EPHEMERIS_TYPE":0,"NORAD_CAT_ID":69177,"ELEMENT_SET_NO":999,"REV_AT_EPOCH":759,"BSTAR":0.00019264418,"MEAN_MOTION_DOT":0.00002317,"MEAN_MOTION_DDOT":0},{"OBJECT_NAME":"STRIX-8","OBJECT_ID":"2026-146A","EPOCH":"2026-07-11T21:35:06.177984","CLASSIFICATION_TYPE":"U","MEAN_MOTION":15.04417214,"ECCENTRICITY":0.00076906,"INCLINATION":41.9901,"RA_OF_ASC_NODE":31.3507,"ARG_OF_PERICENTER":0.3016,"MEAN_ANOMALY":359.7814,"EPHEMERIS_TYPE":0,"NORAD_CAT_ID":69701,"ELEMENT_SET_NO":999,"REV_AT_EPOCH":228,"BSTAR":0.00020374524,"MEAN_MOTION_DOT":0.00002706,"MEAN_MOTION_DDOT":0}]}
