STRIX-1                 
1 53815U 22113A   26192.93508959  .00015217  00000+0  37189-3 0  9995
2 53815  97.4488 255.4166 0005379 140.4391 219.7249 15.40902439211251
STRIX-3                 
1 59224U 24047A   26192.93779256  .00005589  00000+0  26400-3 0  9998
2 59224  97.6627 168.9860 0012341 346.7190  13.3717 15.19778643128509
STRIX-4                 
1 60352U 24137A   26192.91460045  .00009492  00000+0  29653-3 0  9993
2 60352  43.0144 144.2491 0015770 108.8188 251.4378 15.33242349107816
STRIX-2                 
1 62406U 24248A   26192.93901539  .00003205  00000+0  20545-3 0  9995
2 62406  97.6296 148.4410 0013525 248.2341 111.7448 15.09173198 85329
STRIX-5                 
1 65971U 25229A   26192.93119750  .00001771  00000+0  13590-3 0  9999
2 65971  41.9268 150.1696 0037615 216.6886 143.1363 15.04575429 40701
STRIX-6                 
1 68291U 26056A   26192.10641719  .00001272  00000+0  12112-3 0  9995
2 68291  50.2817 236.7152 0016578 335.5146  24.5014 15.00317742 16868
STRIX-7                 
1 69177U 26112A   26192.92187257  .00002317  00000+0  19264-3 0  9990
2 69177  44.9079  62.5234 0024352 189.7901 170.2499 15.01594186  7591
STRIX-8                 
1 69701U 26146A   26192.89937706  .00002706  00000+0  20375-3 0  9995
2 69701  41.9901  31.3507 0007690   0.3016 359.7814 15.04417214  2288
